COSMOS 1743             
1 16719U 86034A   25308.45643176  .00029549  00000+0  53426-3 0  9990
2 16719  82.5391 204.2691 0008520  42.8240 317.3673 15.49498954160806
SL-14 R/B               
1 16792U 86046B   25308.45342448  .00000594  00000+0  65906-4 0  9998
2 16792  82.4842 198.4662 0021661 283.2121  76.6678 14.85426452107814
SL-14 R/B               
1 16882U 86055B   25308.32822249  .00000724  00000+0  80911-4 0  9994
2 16882  82.5206 244.4605 0019894  31.1801  84.0142 14.85464412100751
AJISAI (EGS)            
1 16908U 86061A   25308.51322940 -.00000093  00000+0  31329-4 0  9993
2 16908  50.0067 118.2608 0011149 329.4609  83.4531 12.44514131452415
COSMOS 1812             
1 17295U 87003A   25308.46012343  .00061703  00000+0  55632-3 0  9993
2 17295  82.4894 333.2091 0003921 161.9019 198.2382 15.67928148124645
SL-14 R/B               
1 17567U 87024B   25308.46493788  .00000632  00000+0  69539-4 0  9990
2 17567  82.5305 210.4028 0017313 319.6675  40.3256 14.85964965 69530
COSMOS 1833             
1 17589U 87027A   25308.20735481 -.00000297  00000+0 -13311-3 0  9993
2 17589  70.9158 229.7761 0020780  26.2835 333.9336 14.13023199992585
SL-16 R/B               
1 17590U 87027B   25308.40404939  .00000274  00000+0  15992-3 0  9998
2 17590  71.0015 180.4975 0006855 299.9683  60.0760 14.17143676997635
SL-14 R/B               
1 17912U 87038B   25308.39556124  .00000701  00000+0  78813-4 0  9997
2 17912  82.5028  54.8070 0018459 215.1566 144.8434 14.85199970 60630
COSMOS 1844             
1 17973U 87041A   25308.37530147  .00000413  00000+0  23951-3 0  9995
2 17973  70.8975 298.4879 0032220 213.9697 145.9362 14.14512226985862
SL-14 R/B               
1 18153U 87055B   25308.46156965  .00000619  00000+0  68729-4 0  9994
2 18153  82.4965 107.0618 0022107  69.1280 291.2300 14.85456848 51348
COSMOS 1867             
1 18187U 87060A   25308.31815947  .00000006  00000+0  39773-4 0  9990
2 18187  65.0100 297.7976 0013731 267.2887  92.6626 14.31476187  1993
