CCSDS_OMM_VERS = 2.0
CREATION_DATE  = 
ORIGINATOR     = 

OBJECT_NAME    = COSMOS 1743
OBJECT_ID      = 1986-034A
CENTER_NAME    = EARTH
REF_FRAME      = TEME
TIME_SYSTEM    = UTC
MEAN_ELEMENT_THEORY = SGP/SGP4

EPOCH          = 2025-11-04T10:57:15.704064
MEAN_MOTION    = 15.49498954
ECCENTRICITY   = .000852
INCLINATION    = 82.5391
RA_OF_ASC_NODE = 204.2691
ARG_OF_PERICENTER = 42.8240
MEAN_ANOMALY   = 317.3673

EPHEMERIS_TYPE = 0
CLASSIFICATION_TYPE = U
NORAD_CAT_ID   = 16719
ELEMENT_SET_NO = 999
REV_AT_EPOCH   = 16080
BSTAR          = .53426E-3
MEAN_MOTION_DOT = .29549E-3
MEAN_MOTION_DDOT = 0

CCSDS_OMM_VERS = 2.0
CREATION_DATE  = 
ORIGINATOR     = 

OBJECT_NAME    = SL-14 R/B
OBJECT_ID      = 1986-046B
CENTER_NAME    = EARTH
REF_FRAME      = TEME
TIME_SYSTEM    = UTC
MEAN_ELEMENT_THEORY = SGP/SGP4

EPOCH          = 2025-11-04T10:52:55.875072
MEAN_MOTION    = 14.85426452
ECCENTRICITY   = .0021661
INCLINATION    = 82.4842
RA_OF_ASC_NODE = 198.4662
ARG_OF_PERICENTER = 283.2121
MEAN_ANOMALY   = 76.6678

EPHEMERIS_TYPE = 0
CLASSIFICATION_TYPE = U
NORAD_CAT_ID   = 16792
ELEMENT_SET_NO = 999
REV_AT_EPOCH   = 10781
BSTAR          = .65906E-4
MEAN_MOTION_DOT = .594E-5
MEAN_MOTION_DDOT = 0

CCSDS_OMM_VERS = 2.0
CREATION_DATE  = 
ORIGINATOR     = 

OBJECT_NAME    = SL-14 R/B
OBJECT_ID      = 1986-055B
CENTER_NAME    = EARTH
REF_FRAME      = TEME
TIME_SYSTEM    = UTC
MEAN_ELEMENT_THEORY = SGP/SGP4

EPOCH          = 2025-11-04T07:52:38.423136
MEAN_MOTION    = 14.85464412
ECCENTRICITY   = .0019894
INCLINATION    = 82.5206
RA_OF_ASC_NODE = 244.4605
ARG_OF_PERICENTER = 31.1801
MEAN_ANOMALY   = 84.0142

EPHEMERIS_TYPE = 0
CLASSIFICATION_TYPE = U
NORAD_CAT_ID   = 16882
ELEMENT_SET_NO = 999
REV_AT_EPOCH   = 10075
BSTAR          = .80911E-4
MEAN_MOTION_DOT = .724E-5
MEAN_MOTION_DDOT = 0

CCSDS_OMM_VERS = 2.0
CREATION_DATE  = 
ORIGINATOR     = 

OBJECT_NAME    = AJISAI (EGS)
OBJECT_ID      = 1986-061A
CENTER_NAME    = EARTH
REF_FRAME      = TEME
TIME_SYSTEM    = UTC
MEAN_ELEMENT_THEORY = SGP/SGP4

EPOCH          = 2025-11-04T12:19:03.020160
MEAN_MOTION    = 12.44514131
ECCENTRICITY   = .0011149
INCLINATION    = 50.0067
RA_OF_ASC_NODE = 118.2608
ARG_OF_PERICENTER = 329.4609
MEAN_ANOMALY   = 83.4531

EPHEMERIS_TYPE = 0
CLASSIFICATION_TYPE = U
NORAD_CAT_ID   = 16908
ELEMENT_SET_NO = 999
REV_AT_EPOCH   = 45241
BSTAR          = .31329E-4
MEAN_MOTION_DOT = -.93E-6
MEAN_MOTION_DDOT = 0

CCSDS_OMM_VERS = 2.0
CREATION_DATE  = 
ORIGINATOR     = 

OBJECT_NAME    = COSMOS 1812
OBJECT_ID      = 1987-003A
CENTER_NAME    = EARTH
REF_FRAME      = TEME
TIME_SYSTEM    = UTC
MEAN_ELEMENT_THEORY = SGP/SGP4

EPOCH          = 2025-11-04T11:02:34.664352
MEAN_MOTION    = 15.67928148
ECCENTRICITY   = .0003921
INCLINATION    = 82.4894
RA_OF_ASC_NODE = 333.2091
ARG_OF_PERICENTER = 161.9019
MEAN_ANOMALY   = 198.2382

EPHEMERIS_TYPE = 0
CLASSIFICATION_TYPE = U
NORAD_CAT_ID   = 17295
ELEMENT_SET_NO = 999
REV_AT_EPOCH   = 12464
BSTAR          = .55632E-3
MEAN_MOTION_DOT = .61703E-3
MEAN_MOTION_DDOT = 0

CCSDS_OMM_VERS = 2.0
CREATION_DATE  = 
ORIGINATOR     = 

OBJECT_NAME    = SL-14 R/B
OBJECT_ID      = 1987-024B
CENTER_NAME    = EARTH
REF_FRAME      = TEME
TIME_SYSTEM    = UTC
MEAN_ELEMENT_THEORY = SGP/SGP4

EPOCH          = 2025-11-04T11:09:30.632832
MEAN_MOTION    = 14.85964965
ECCENTRICITY   = .0017313
INCLINATION    = 82.5305
RA_OF_ASC_NODE = 210.4028
ARG_OF_PERICENTER = 319.6675
MEAN_ANOMALY   = 40.3256

EPHEMERIS_TYPE = 0
CLASSIFICATION_TYPE = U
NORAD_CAT_ID   = 17567
ELEMENT_SET_NO = 999
REV_AT_EPOCH   = 6953
BSTAR          = .69539E-4
MEAN_MOTION_DOT = .632E-5
MEAN_MOTION_DDOT = 0

CCSDS_OMM_VERS = 2.0
CREATION_DATE  = 
ORIGINATOR     = 

OBJECT_NAME    = COSMOS 1833
OBJECT_ID      = 1987-027A
CENTER_NAME    = EARTH
REF_FRAME      = TEME
TIME_SYSTEM    = UTC
MEAN_ELEMENT_THEORY = SGP/SGP4

EPOCH          = 2025-11-04T04:58:35.455584
MEAN_MOTION    = 14.13023199
ECCENTRICITY   = .002078
INCLINATION    = 70.9158
RA_OF_ASC_NODE = 229.7761
ARG_OF_PERICENTER = 26.2835
MEAN_ANOMALY   = 333.9336

EPHEMERIS_TYPE = 0
CLASSIFICATION_TYPE = U
NORAD_CAT_ID   = 17589
ELEMENT_SET_NO = 999
REV_AT_EPOCH   = 99258
BSTAR          = -.13311E-3
MEAN_MOTION_DOT = -.297E-5
MEAN_MOTION_DDOT = 0

CCSDS_OMM_VERS = 2.0
CREATION_DATE  = 
ORIGINATOR     = 

OBJECT_NAME    = SL-16 R/B
OBJECT_ID      = 1987-027B
CENTER_NAME    = EARTH
REF_FRAME      = TEME
TIME_SYSTEM    = UTC
MEAN_ELEMENT_THEORY = SGP/SGP4

EPOCH          = 2025-11-04T09:41:49.867296
MEAN_MOTION    = 14.17143676
ECCENTRICITY   = .0006855
INCLINATION    = 71.0015
RA_OF_ASC_NODE = 180.4975
ARG_OF_PERICENTER = 299.9683
MEAN_ANOMALY   = 60.0760

EPHEMERIS_TYPE = 0
CLASSIFICATION_TYPE = U
NORAD_CAT_ID   = 17590
ELEMENT_SET_NO = 999
REV_AT_EPOCH   = 99763
BSTAR          = .15992E-3
MEAN_MOTION_DOT = .274E-5
MEAN_MOTION_DDOT = 0

CCSDS_OMM_VERS = 2.0
CREATION_DATE  = 
ORIGINATOR     = 

OBJECT_NAME    = SL-14 R/B
OBJECT_ID      = 1987-038B
CENTER_NAME    = EARTH
REF_FRAME      = TEME
TIME_SYSTEM    = UTC
MEAN_ELEMENT_THEORY = SGP/SGP4

EPOCH          = 2025-11-04T09:29:36.491136
MEAN_MOTION    = 14.85199970
ECCENTRICITY   = .0018459
INCLINATION    = 82.5028
RA_OF_ASC_NODE = 54.8070
ARG_OF_PERICENTER = 215.1566
MEAN_ANOMALY   = 144.8434

EPHEMERIS_TYPE = 0
CLASSIFICATION_TYPE = U
NORAD_CAT_ID   = 17912
ELEMENT_SET_NO = 999
REV_AT_EPOCH   = 6063
BSTAR          = .78813E-4
MEAN_MOTION_DOT = .701E-5
MEAN_MOTION_DDOT = 0

CCSDS_OMM_VERS = 2.0
CREATION_DATE  = 
ORIGINATOR     = 

OBJECT_NAME    = COSMOS 1844
OBJECT_ID      = 1987-041A
CENTER_NAME    = EARTH
REF_FRAME      = TEME
TIME_SYSTEM    = UTC
MEAN_ELEMENT_THEORY = SGP/SGP4

EPOCH          = 2025-11-04T09:00:26.047008
MEAN_MOTION    = 14.14512226
ECCENTRICITY   = .003222
INCLINATION    = 70.8975
RA_OF_ASC_NODE = 298.4879
ARG_OF_PERICENTER = 213.9697
MEAN_ANOMALY   = 145.9362

EPHEMERIS_TYPE = 0
CLASSIFICATION_TYPE = U
NORAD_CAT_ID   = 17973
ELEMENT_SET_NO = 999
REV_AT_EPOCH   = 98586
BSTAR          = .23951E-3
MEAN_MOTION_DOT = .413E-5
MEAN_MOTION_DDOT = 0

CCSDS_OMM_VERS = 2.0
CREATION_DATE  = 
ORIGINATOR     = 

OBJECT_NAME    = SL-14 R/B
OBJECT_ID      = 1987-055B
CENTER_NAME    = EARTH
REF_FRAME      = TEME
TIME_SYSTEM    = UTC
MEAN_ELEMENT_THEORY = SGP/SGP4

EPOCH          = 2025-11-04T11:04:39.617760
MEAN_MOTION    = 14.85456848
ECCENTRICITY   = .0022107
INCLINATION    = 82.4965
RA_OF_ASC_NODE = 107.0618
ARG_OF_PERICENTER = 69.1280
MEAN_ANOMALY   = 291.2300

EPHEMERIS_TYPE = 0
CLASSIFICATION_TYPE = U
NORAD_CAT_ID   = 18153
ELEMENT_SET_NO = 999
REV_AT_EPOCH   = 5134
BSTAR          = .68729E-4
MEAN_MOTION_DOT = .619E-5
MEAN_MOTION_DDOT = 0

CCSDS_OMM_VERS = 2.0
CREATION_DATE  = 
ORIGINATOR     = 

OBJECT_NAME    = COSMOS 1867
OBJECT_ID      = 1987-060A
CENTER_NAME    = EARTH
REF_FRAME      = TEME
TIME_SYSTEM    = UTC
MEAN_ELEMENT_THEORY = SGP/SGP4

EPOCH          = 2025-11-04T07:38:08.978208
MEAN_MOTION    = 14.31476187
ECCENTRICITY   = .0013731
INCLINATION    = 65.0100
RA_OF_ASC_NODE = 297.7976
ARG_OF_PERICENTER = 267.2887
MEAN_ANOMALY   = 92.6626

EPHEMERIS_TYPE = 0
CLASSIFICATION_TYPE = U
NORAD_CAT_ID   = 18187
ELEMENT_SET_NO = 999
REV_AT_EPOCH   = 199
BSTAR          = .39773E-4
MEAN_MOTION_DOT = .6E-7
MEAN_MOTION_DDOT = 0

